{"type": "FeatureCollection", "features": [ {"type": "Feature", "properties": {"norad_id": 33492, "name": "GOSAT (IBUKI)", "group": "resource", "lat": 33.39494329923002, "lon": -75.10025970479882, "alt_km": 666.4572360004186, "timestamp": "2025-12-16T23:36:35.841578+00:00", "meta": {"OBJECT_NAME": "GOSAT (IBUKI)", "OBJECT_ID": "2009-002A", "EPOCH": "2025-12-16T06:34:57.271872", "MEAN_MOTION": 14.67532853, "ECCENTRICITY": 9.554e-05, "INCLINATION": 98.0769, "RA_OF_ASC_NODE": 98.8286, "ARG_OF_PERICENTER": 98.1242, "MEAN_ANOMALY": 262.0071, "EPHEMERIS_TYPE": 0, "CLASSIFICATION_TYPE": "U", "NORAD_CAT_ID": 33492, "ELEMENT_SET_NO": 999, "REV_AT_EPOCH": 90463, "BSTAR": 0.00015559262, "MEAN_MOTION_DOT": 8.34e-06, "MEAN_MOTION_DDOT": 0}, "tle": {"line1": "1 33492U 09002A   25350.27427398  .00000834  00000+0  15559-3 0  9991", "line2": "2 33492  98.0769  98.8286 0000955  98.1242 262.0071 14.67532853904632"}}, "geometry": {"type": "Point", "coordinates": [-75.10025970479882, 33.39494329923002]}}, {"type": "Feature", "properties": {"norad_id": 35681, "name": "DEIMOS-1", "group": "resource", "lat": -23.092593442391298, "lon": 154.7020190604023, "alt_km": 650.9011514713029, "timestamp": "2025-12-16T23:36:35.841589+00:00", "meta": {"OBJECT_NAME": "DEIMOS-1", "OBJECT_ID": "2009-041A", "EPOCH": "2025-12-16T09:03:43.355232", "MEAN_MOTION": 14.74960244, "ECCENTRICITY": 0.00026561, "INCLINATION": 97.7145, "RA_OF_ASC_NODE": 150.8109, "ARG_OF_PERICENTER": 73.5031, "MEAN_ANOMALY": 286.647, "EPHEMERIS_TYPE": 0, "CLASSIFICATION_TYPE": "U", "NORAD_CAT_ID": 35681, "ELEMENT_SET_NO": 999, "REV_AT_EPOCH": 87993, "BSTAR": 0.00014159612, "MEAN_MOTION_DOT": 9.04e-06, "MEAN_MOTION_DDOT": 0}, "tle": {"line1": "1 35681U 09041A   25350.37758513  .00000904  00000+0  14160-3 0  9998", "line2": "2 35681  97.7145 150.8109 0002656  73.5031 286.6470 14.74960244879930"}}, "geometry": {"type": "Point", "coordinates": [154.7020190604023, -23.092593442391298]}}, {"type": "Feature", "properties": {"norad_id": 35682, "name": "DUBAISAT-1", "group": "resource", "lat": -81.26832470189336, "lon": -124.36007710996903, "alt_km": 648.1895637665666, "timestamp": "2025-12-16T23:36:35.841600+00:00", "meta": {"OBJECT_NAME": "DUBAISAT-1", "OBJECT_ID": "2009-041B", "EPOCH": "2025-12-16T07:44:51.876960", "MEAN_MOTION": 14.74614048, "ECCENTRICITY": 0.00094183, "INCLINATION": 97.9793, "RA_OF_ASC_NODE": 120.9498, "ARG_OF_PERICENTER": 301.8459, "MEAN_ANOMALY": 58.1832, "EPHEMERIS_TYPE": 0, "CLASSIFICATION_TYPE": "U", "NORAD_CAT_ID": 35682, "ELEMENT_SET_NO": 999, "REV_AT_EPOCH": 87814, "BSTAR": 0.00019342687, "MEAN_MOTION_DOT": 1.24e-05, "MEAN_MOTION_DDOT": 0}, "tle": {"line1": "1 35682U 09041B   25350.32282265  .00001240  00000+0  19343-3 0  9992", "line2": "2 35682  97.9793 120.9498 0009418 301.8459  58.1832 14.74614048878149"}}, "geometry": {"type": "Point", "coordinates": [-124.36007710996903, -81.26832470189336]}}, {"type": "Feature", "properties": {"norad_id": 35931, "name": "OCEANSAT-2", "group": "resource", "lat": 19.65072556277484, "lon": -11.80554379814882, "alt_km": 883.7509192041125, "timestamp": "2025-12-16T23:36:35.841611+00:00", "meta": {"OBJECT_NAME": "OCEANSAT-2", "OBJECT_ID": "2009-051A", "EPOCH": "2025-12-16T06:21:30.827232", "MEAN_MOTION": 13.99623899, "ECCENTRICITY": 0.00161253, "INCLINATION": 98.222, "RA_OF_ASC_NODE": 350.508, "ARG_OF_PERICENTER": 35.8282, "MEAN_ANOMALY": 324.3963, "EPHEMERIS_TYPE": 0, "CLASSIFICATION_TYPE": "U", "NORAD_CAT_ID": 35931, "ELEMENT_SET_NO": 999, "REV_AT_EPOCH": 85374, "BSTAR": -7.2647916e-05, "MEAN_MOTION_DOT": -1.44e-06, "MEAN_MOTION_DDOT": 0}, "tle": {"line1": "1 35931U 09051A   25350.26494013 -.00000144  00000+0 -72648-4 0  9991", "line2": "2 35931  98.2220 350.5080 0016125  35.8282 324.3963 13.99623899853746"}}, "geometry": {"type": "Point", "coordinates": [-11.80554379814882, 19.65072556277484]}}, {"type": "Feature", "properties": {"norad_id": 35946, "name": "WORLDVIEW-2 (WV-2)", "group": "resource", "lat": 2.515821617436991, "lon": 61.63438833057696, "alt_km": 766.6732308266974, "timestamp": "2025-12-16T23:36:35.841622+00:00", "meta": {"OBJECT_NAME": "WORLDVIEW-2 (WV-2)", "OBJECT_ID": "2009-055A", "EPOCH": "2025-12-16T08:33:56.774304", "MEAN_MOTION": 14.37725574, "ECCENTRICITY": 0.00050741, "INCLINATION": 98.4786, "RA_OF_ASC_NODE": 61.3917, "ARG_OF_PERICENTER": 61.8211, "MEAN_ANOMALY": 298.3488, "EPHEMERIS_TYPE": 0, "CLASSIFICATION_TYPE": "U", "NORAD_CAT_ID": 35946, "ELEMENT_SET_NO": 999, "REV_AT_EPOCH": 84937, "BSTAR": 7.3350956e-05, "MEAN_MOTION_DOT": 1.77e-06, "MEAN_MOTION_DDOT": 0}, "tle": {"line1": "1 35946U 09055A   25350.35690711  .00000177  00000+0  73351-4 0  9990", "line2": "2 35946  98.4786  61.3917 0005074  61.8211 298.3488 14.37725574849371"}}, "geometry": {"type": "Point", "coordinates": [61.63438833057696, 2.515821617436991]}}, {"type": "Feature", "properties": {"norad_id": 36036, "name": "SMOS", "group": "resource", "lat": 67.36120866345365, "lon": 155.11872668654965, "alt_km": 751.9938838039416, "timestamp": "2025-12-16T23:36:35.841632+00:00", "meta": {"OBJECT_NAME": "SMOS", "OBJECT_ID": "2009-059A", "EPOCH": "2025-12-16T03:16:33.387456", "MEAN_MOTION": 14.39744077, "ECCENTRICITY": 0.00011034, "INCLINATION": 98.438, "RA_OF_ASC_NODE": 175.1347, "ARG_OF_PERICENTER": 83.8254, "MEAN_ANOMALY": 276.3059, "EPHEMERIS_TYPE": 0, "CLASSIFICATION_TYPE": "U", "NORAD_CAT_ID": 36036, "ELEMENT_SET_NO": 999, "REV_AT_EPOCH": 84711, "BSTAR": 0.00012392809, "MEAN_MOTION_DOT": 3.45e-06, "MEAN_MOTION_DDOT": 0}, "tle": {"line1": "1 36036U 09059A   25350.13649754  .00000345  00000+0  12393-3 0  9997", "line2": "2 36036  98.4380 175.1347 0001103  83.8254 276.3059 14.39744077847114"}}, "geometry": {"type": "Point", "coordinates": [155.11872668654965, 67.36120866345365]}}, {"type": "Feature", "properties": {"norad_id": 36110, "name": "YAOGAN-7", "group": "resource", "lat": 65.37452649446638, "lon": 70.6620573785068, "alt_km": 644.7527229866819, "timestamp": "2025-12-16T23:36:35.841651+00:00", "meta": {"OBJECT_NAME": "YAOGAN-7", "OBJECT_ID": "2009-069A", "EPOCH": "2025-12-16T06:50:46.945248", "MEAN_MOTION": 14.77737676, "ECCENTRICITY": 0.00233299, "INCLINATION": 98.0297, "RA_OF_ASC_NODE": 232.0295, "ARG_OF_PERICENTER": 269.1988, "MEAN_ANOMALY": 90.6549, "EPHEMERIS_TYPE": 0, "CLASSIFICATION_TYPE": "U", "NORAD_CAT_ID": 36110, "ELEMENT_SET_NO": 999, "REV_AT_EPOCH": 86261, "BSTAR": 9.1616106e-05, "MEAN_MOTION_DOT": 6.06e-06, "MEAN_MOTION_DDOT": 0}, "tle": {"line1": "1 36110U 09069A   25350.28526557  .00000606  00000+0  91616-4 0  9998", "line2": "2 36110  98.0297 232.0295 0023329 269.1988  90.6549 14.77737676862614"}}, "geometry": {"type": "Point", "coordinates": [70.6620573785068, 65.37452649446638]}}, {"type": "Feature", "properties": {"norad_id": 36605, "name": "TANDEM-X", "group": "resource", "lat": -82.51477675645936, "lon": 80.6973245428542, "alt_km": 517.0837732145574, "timestamp": "2025-12-16T23:36:35.841671+00:00", "meta": {"OBJECT_NAME": "TANDEM-X", "OBJECT_ID": "2010-030A", "EPOCH": "2025-12-15T11:38:35.554272", "MEAN_MOTION": 15.19144958, "ECCENTRICITY": 0.000193, "INCLINATION": 97.4447, "RA_OF_ASC_NODE": 354.8261, "ARG_OF_PERICENTER": 84.3748, "MEAN_ANOMALY": 275.7707, "EPHEMERIS_TYPE": 0, "CLASSIFICATION_TYPE": "U", "NORAD_CAT_ID": 36605, "ELEMENT_SET_NO": 999, "REV_AT_EPOCH": 85875, "BSTAR": 7.0899698e-05, "MEAN_MOTION_DOT": 1.422e-05, "MEAN_MOTION_DDOT": 0}, "tle": {"line1": "1 36605U 10030A   25349.48513373  .00001422  00000+0  70900-4 0  9999", "line2": "2 36605  97.4447 354.8261 0001930  84.3748 275.7707 15.19144958858758"}}, "geometry": {"type": "Point", "coordinates": [80.6973245428542, -82.51477675645936]}}, {"type": "Feature", "properties": {"norad_id": 36795, "name": "CARTOSAT-2B", "group": "resource", "lat": 55.041835945389536, "lon": 28.59093612667645, "alt_km": 619.1202809716788, "timestamp": "2025-12-16T23:36:35.841683+00:00", "meta": {"OBJECT_NAME": "CARTOSAT-2B", "OBJECT_ID": "2010-035A", "EPOCH": "2025-12-16T07:07:08.095008", "MEAN_MOTION": 14.78729833, "ECCENTRICITY": 0.00129542, "INCLINATION": 97.7855, "RA_OF_ASC_NODE": 39.2117, "ARG_OF_PERICENTER": 66.0072, "MEAN_ANOMALY": 294.2495, "EPHEMERIS_TYPE": 0, "CLASSIFICATION_TYPE": "U", "NORAD_CAT_ID": 36795, "ELEMENT_SET_NO": 999, "REV_AT_EPOCH": 83282, "BSTAR": 9.5169445e-05, "MEAN_MOTION_DOT": 6.49e-06, "MEAN_MOTION_DDOT": 0}, "tle": {"line1": "1 36795U 10035A   25350.29662147  .00000649  00000+0  95169-4 0  9993", "line2": "2 36795  97.7855  39.2117 0012954  66.0072 294.2495 14.78729833832828"}}, "geometry": {"type": "Point", "coordinates": [28.59093612667645, 55.041835945389536]}}, {"type": "Feature", "properties": {"norad_id": 36834, "name": "YAOGAN-10", "group": "resource", "lat": -45.48727222838406, "lon": -177.36136048427895, "alt_km": 622.3575613946186, "timestamp": "2025-12-16T23:36:35.841694+00:00", "meta": {"OBJECT_NAME": "YAOGAN-10", "OBJECT_ID": "2010-038A", "EPOCH": "2025-12-16T06:40:47.583264", "MEAN_MOTION": 14.84620859, "ECCENTRICITY": 0.00013706, "INCLINATION": 97.9144, "RA_OF_ASC_NODE": 10.073, "ARG_OF_PERICENTER": 79.1392, "MEAN_ANOMALY": 338.9046, "EPHEMERIS_TYPE": 0, "CLASSIFICATION_TYPE": "U", "NORAD_CAT_ID": 36834, "ELEMENT_SET_NO": 999, "REV_AT_EPOCH": 83006, "BSTAR": 0.00018228938, "MEAN_MOTION_DOT": 1.487e-05, "MEAN_MOTION_DDOT": 0}, "tle": {"line1": "1 36834U 10038A   25350.27832851  .00001487  00000+0  18229-3 0  9991", "line2": "2 36834  97.9144  10.0730 0001370  79.1392 338.9046 14.84620859830060"}}, "geometry": {"type": "Point", "coordinates": [-177.36136048427895, -45.48727222838406]}}]}